{"type": "FeatureCollection", "features": [ {"type": "Feature", "properties": {"norad_id": 64901, "name": "CO3D 4", "group": "resource", "lat": -21.56439070518523, "lon": 63.56799952866445, "alt_km": 511.08022606243776, "timestamp": "2025-12-10T04:57:29.263682+00:00", "meta": {"OBJECT_NAME": "CO3D 4", "OBJECT_ID": "2025-156C", "EPOCH": "2025-12-09T19:34:30.686880", "MEAN_MOTION": 15.20206414, "ECCENTRICITY": 0.0001132, "INCLINATION": 97.4338, "RA_OF_ASC_NODE": 60.2248, "ARG_OF_PERICENTER": 213.4588, "MEAN_ANOMALY": 146.6576, "EPHEMERIS_TYPE": 0, "CLASSIFICATION_TYPE": "U", "NORAD_CAT_ID": 64901, "ELEMENT_SET_NO": 999, "REV_AT_EPOCH": 2076, "BSTAR": 0.00013578, "MEAN_MOTION_DOT": 2.873e-05, "MEAN_MOTION_DDOT": 0}, "tle": {"line1": "1 64901U 25156C   25343.81563295  .00002873  00000+0  13578-3 0  9991", "line2": "2 64901  97.4338  60.2248 0001132 213.4588 146.6576 15.20206414 20761"}}, "geometry": {"type": "Point", "coordinates": [63.56799952866445, -21.56439070518523]}}, {"type": "Feature", "properties": {"norad_id": 64902, "name": "CO3D 2", "group": "resource", "lat": 19.655746131709794, "lon": -116.83173741814433, "alt_km": 510.7007973766222, "timestamp": "2025-12-10T04:57:29.263692+00:00", "meta": {"OBJECT_NAME": "CO3D 2", "OBJECT_ID": "2025-156D", "EPOCH": "2025-12-09T12:27:23.938848", "MEAN_MOTION": 15.20057842, "ECCENTRICITY": 0.00090681, "INCLINATION": 97.4213, "RA_OF_ASC_NODE": 59.8234, "ARG_OF_PERICENTER": 303.4369, "MEAN_ANOMALY": 56.5998, "EPHEMERIS_TYPE": 0, "CLASSIFICATION_TYPE": "U", "NORAD_CAT_ID": 64902, "ELEMENT_SET_NO": 999, "REV_AT_EPOCH": 2071, "BSTAR": 0.00028838885, "MEAN_MOTION_DOT": 6.16e-05, "MEAN_MOTION_DDOT": 0}, "tle": {"line1": "1 64902U 25156D   25343.51902707  .00006160  00000+0  28839-3 0  9993", "line2": "2 64902  97.4213  59.8234 0009068 303.4369  56.5998 15.20057842 20717"}}, "geometry": {"type": "Point", "coordinates": [-116.83173741814433, 19.655746131709794]}}, {"type": "Feature", "properties": {"norad_id": 64903, "name": "CO3D 1", "group": "resource", "lat": 19.803503307593516, "lon": -116.79653859927649, "alt_km": 505.06845433000854, "timestamp": "2025-12-10T04:57:29.263702+00:00", "meta": {"OBJECT_NAME": "CO3D 1", "OBJECT_ID": "2025-156E", "EPOCH": "2025-12-09T20:21:30.248928", "MEAN_MOTION": 15.20214291, "ECCENTRICITY": 9.32e-05, "INCLINATION": 97.4337, "RA_OF_ASC_NODE": 60.1555, "ARG_OF_PERICENTER": 98.4999, "MEAN_ANOMALY": 261.6342, "EPHEMERIS_TYPE": 0, "CLASSIFICATION_TYPE": "U", "NORAD_CAT_ID": 64903, "ELEMENT_SET_NO": 999, "REV_AT_EPOCH": 2076, "BSTAR": 0.00041201, "MEAN_MOTION_DOT": 8.865e-05, "MEAN_MOTION_DDOT": 0}, "tle": {"line1": "1 64903U 25156E   25343.84826677  .00008865  00000+0  41201-3 0  9993", "line2": "2 64903  97.4337  60.1555 0000932  98.4999 261.6342 15.20214291 20767"}}, "geometry": {"type": "Point", "coordinates": [-116.79653859927649, 19.803503307593516]}}, {"type": "Feature", "properties": {"norad_id": 66514, "name": "SENTINEL-6B", "group": "resource", "lat": -54.28181196308075, "lon": 129.4962409614644, "alt_km": 1317.3175691803708, "timestamp": "2025-12-10T04:57:29.263712+00:00", "meta": {"OBJECT_NAME": "SENTINEL-6B", "OBJECT_ID": "2025-264A", "EPOCH": "2025-12-08T23:22:28.384896", "MEAN_MOTION": 12.84031992, "ECCENTRICITY": 0.00210406, "INCLINATION": 66.0385, "RA_OF_ASC_NODE": 170.2707, "ARG_OF_PERICENTER": 268.23, "MEAN_ANOMALY": 91.6307, "EPHEMERIS_TYPE": 0, "CLASSIFICATION_TYPE": "U", "NORAD_CAT_ID": 66514, "ELEMENT_SET_NO": 999, "REV_AT_EPOCH": 280, "BSTAR": 0.000106025, "MEAN_MOTION_DOT": -3.6e-07, "MEAN_MOTION_DDOT": 0}, "tle": {"line1": "1 66514U 25264A   25342.97393964 -.00000036  00000+0  10602-3 0  9998", "line2": "2 66514  66.0385 170.2707 0021040 268.2300  91.6307 12.84031992  2809"}}, "geometry": {"type": "Point", "coordinates": [129.4962409614644, -54.28181196308075]}}]}